{
  "norad_id": 66546,
  "name": "SHIJIAN-30B (SJ-30B)",
  "history": [
    {
      "epoch": "2026-03-28T18:55:47.207712",
      "apogee_km": 526.9487467053204,
      "perigee_km": 512.2199044044364,
      "latitude_deg": -37.05529590374037,
      "longitude_deg": -169.6808803200256,
      "semi_major_axis_km": 6897.721325554879,
      "eccentricity": 0.00106766,
      "inclination_deg": 51.7967,
      "raan_deg": 196.008,
      "arg_perigee_deg": 357.025,
      "mean_anomaly_deg": 3.0661,
      "mean_motion_rev_day": 15.15459363
    }
  ]
}